start=new Date('2023-03-02T00:00:00.000Z').valueOf();
sats=[{"DECAY_DATE":null,"MEAN_MOTION":"15.06349244","MEAN_ELEMENT_THEORY":"SGP4","EPHEMERIS_TYPE":"0","REV_AT_EPOCH":"11021","NORAD_CAT_ID":"47823","REF_FRAME":"TEME","RA_OF_ASC_NODE":"167.2191","CLASSIFICATION_TYPE":"U","OBJECT_ID":"2021-018AN","ELEMENT_SET_NO":"999","OBJECT_NAME":"STARLINK-2408","MEAN_MOTION_DOT":"0.00031026","SITE":"AFETR","ARG_OF_PERICENTER":"88.4113","RCS_SIZE":"LARGE","MEAN_ANOMALY":"271.7045","TIME_SYSTEM":"UTC","PERIOD":"95.595","COUNTRY_CODE":"US","GP_ID":"227318009","TLE_LINE2":"2 47823  53.0525 167.2191 0001479  88.4113 271.7045 15.06349244110218","APOAPSIS":"548.393","ECCENTRICITY":"0.00014790","TLE_LINE1":"1 47823U 21018AN  23060.78686845  .00031026  00000-0  20955-2 0  9994","FILE":"3848834","CENTER_NAME":"EARTH","EPOCH":"2023-03-01T18:53:05.434080","SEMIMAJOR_AXIS":"6925.504","OBJECT_TYPE":"PAYLOAD","LAUNCH_DATE":"2021-03-11","BSTAR":"0.00209550000000","PERIAPSIS":"546.345","MEAN_MOTION_DDOT":"0.0000000000000","INCLINATION":"53.0525"},{"ARG_OF_PERICENTER":"112.0113","SITE":"AFETR","MEAN_ANOMALY":"248.1000","RCS_SIZE":"LARGE","TIME_SYSTEM":"UTC","PERIOD":"95.593","COUNTRY_CODE":"US","DECAY_DATE":null,"MEAN_MOTION":"15.06382339","MEAN_ELEMENT_THEORY":"SGP4","EPHEMERIS_TYPE":"0","REV_AT_EPOCH":"11016","OBJECT_ID":"2021-018AP","CLASSIFICATION_TYPE":"U","REF_FRAME":"TEME","RA_OF_ASC_NODE":"168.4681","NORAD_CAT_ID":"47824","OBJECT_NAME":"STARLINK-2409","ELEMENT_SET_NO":"999","MEAN_MOTION_DOT":"0.00017801","LAUNCH_DATE":"2021-03-11","OBJECT_TYPE":"PAYLOAD","PERIAPSIS":"546.462","BSTAR":"0.00121150000000","MEAN_MOTION_DDOT":"0.0000000000000","INCLINATION":"53.0510","GP_ID":"227318756","TLE_LINE1":"1 47824U 21018AP  23060.51135477  .00017801  00000-0  12115-2 0  9990","APOAPSIS":"548.073","TLE_LINE2":"2 47824  53.0510 168.4681 0001163 112.0113 248.1000 15.06382339110169","ECCENTRICITY":"0.00011630","CENTER_NAME":"EARTH","FILE":"3848834","EPOCH":"2023-03-01T12:16:21.052128","SEMIMAJOR_AXIS":"6925.403"},{"TIME_SYSTEM":"UTC","MEAN_ANOMALY":"247.8116","RCS_SIZE":"LARGE","SITE":"AFETR","ARG_OF_PERICENTER":"112.2993","COUNTRY_CODE":"US","PERIOD":"95.594","EPHEMERIS_TYPE":"0","MEAN_ELEMENT_THEORY":"SGP4","DECAY_DATE":null,"MEAN_MOTION":"15.06367596","MEAN_MOTION_DOT":"0.00034436","OBJECT_NAME":"STARLINK-2410","ELEMENT_SET_NO":"999","CLASSIFICATION_TYPE":"U","OBJECT_ID":"2021-018AQ","RA_OF_ASC_NODE":"167.7905","NORAD_CAT_ID":"47825","REF_FRAME":"TEME","REV_AT_EPOCH":"11019","PERIAPSIS":"546.524","BSTAR":"0.00232150000000","LAUNCH_DATE":"2021-03-11","OBJECT_TYPE":"PAYLOAD","INCLINATION":"53.0523","MEAN_MOTION_DDOT":"0.0000000000000","TLE_LINE1":"1 47825U 21018AQ  23060.66248100  .00034436  00000-0  23215-2 0  9991","APOAPSIS":"548.102","TLE_LINE2":"2 47825  53.0523 167.7905 0001139 112.2993 247.8116 15.06367596110191","ECCENTRICITY":"0.00011390","GP_ID":"227317508","SEMIMAJOR_AXIS":"6925.448","EPOCH":"2023-03-01T15:53:58.358400","CENTER_NAME":"EARTH","FILE":"3848834"},{"PERIAPSIS":"546.517","BSTAR":"0.00182740000000","LAUNCH_DATE":"2021-03-11","OBJECT_TYPE":"PAYLOAD","INCLINATION":"53.0529","MEAN_MOTION_DDOT":"0.0000000000000","TLE_LINE1":"1 47826U 21018AR  23060.72514774  .00027015  00000-0  18274-2 0  9996","TLE_LINE2":"2 47826  53.0529 167.5078 0001171 111.7804 248.3310 15.06362522110206","ECCENTRICITY":"0.00011710","APOAPSIS":"548.139","GP_ID":"227317758","SEMIMAJOR_AXIS":"6925.463","EPOCH":"2023-03-01T17:24:12.764736","CENTER_NAME":"EARTH","FILE":"3848834","TIME_SYSTEM":"UTC","MEAN_ANOMALY":"248.3310","RCS_SIZE":"LARGE","ARG_OF_PERICENTER":"111.7804","SITE":"AFETR","COUNTRY_CODE":"US","PERIOD":"95.595","EPHEMERIS_TYPE":"0","MEAN_ELEMENT_THEORY":"SGP4","MEAN_MOTION":"15.06362522","DECAY_DATE":null,"MEAN_MOTION_DOT":"0.00027015","OBJECT_NAME":"STARLINK-2411","ELEMENT_SET_NO":"999","OBJECT_ID":"2021-018AR","CLASSIFICATION_TYPE":"U","NORAD_CAT_ID":"47826","RA_OF_ASC_NODE":"167.5078","REF_FRAME":"TEME","REV_AT_EPOCH":"11020"},{"MEAN_MOTION_DOT":"0.00032352","OBJECT_NAME":"STARLINK-2413","ELEMENT_SET_NO":"999","CLASSIFICATION_TYPE":"U","OBJECT_ID":"2021-018AS","RA_OF_ASC_NODE":"157.5232","NORAD_CAT_ID":"47827","REF_FRAME":"TEME","REV_AT_EPOCH":"11040","EPHEMERIS_TYPE":"0","MEAN_ELEMENT_THEORY":"SGP4","DECAY_DATE":null,"MEAN_MOTION":"15.06349846","COUNTRY_CODE":"US","PERIOD":"95.595","TIME_SYSTEM":"UTC","MEAN_ANOMALY":"249.7283","RCS_SIZE":"LARGE","ARG_OF_PERICENTER":"110.3896","SITE":"AFETR","SEMIMAJOR_AXIS":"6925.502","EPOCH":"2023-03-01T18:34:35.261472","CENTER_NAME":"EARTH","FILE":"3848834","TLE_LINE1":"1 47827U 21018AS  23060.77401923  .00032352  00000-0  21838-2 0  9993","ECCENTRICITY":"0.00017700","TLE_LINE2":"2 47827  53.0549 157.5232 0001770 110.3896 249.7283 15.06349846110401","APOAPSIS":"548.593","GP_ID":"227318509","INCLINATION":"53.0549","MEAN_MOTION_DDOT":"0.0000000000000","PERIAPSIS":"546.141","BSTAR":"0.00218380000000","LAUNCH_DATE":"2021-03-11","OBJECT_TYPE":"PAYLOAD"},{"RA_OF_ASC_NODE":"178.1747","REF_FRAME":"TEME","NORAD_CAT_ID":"47828","OBJECT_ID":"2021-018AT","CLASSIFICATION_TYPE":"U","REV_AT_EPOCH":"11004","MEAN_MOTION_DOT":"0.00023352","ELEMENT_SET_NO":"999","OBJECT_NAME":"STARLINK-2415","MEAN_ELEMENT_THEORY":"SGP4","DECAY_DATE":null,"MEAN_MOTION":"15.06362468","EPHEMERIS_TYPE":"0","COUNTRY_CODE":"US","PERIOD":"95.595","ARG_OF_PERICENTER":"111.4800","SITE":"AFETR","TIME_SYSTEM":"UTC","RCS_SIZE":"LARGE","MEAN_ANOMALY":"248.6358","EPOCH":"2023-03-01T13:50:34.099584","FILE":"3848834","CENTER_NAME":"EARTH","SEMIMAJOR_AXIS":"6925.464","GP_ID":"227318257","TLE_LINE2":"2 47828  53.0522 178.1747 0001589 111.4800 248.6358 15.06362468110044","ECCENTRICITY":"0.00015890","APOAPSIS":"548.429","TLE_LINE1":"1 47828U 21018AT  23060.57678356  .00023352  00000-0  15830-2 0  9993","MEAN_MOTION_DDOT":"0.0000000000000","INCLINATION":"53.0522","BSTAR":"0.00158300000000","PERIAPSIS":"546.228","OBJECT_TYPE":"PAYLOAD","LAUNCH_DATE":"2021-03-11"},{"TIME_SYSTEM":"UTC","RCS_SIZE":"LARGE","MEAN_ANOMALY":"279.5709","ARG_OF_PERICENTER":"80.5367","SITE":"AFETR","COUNTRY_CODE":"US","PERIOD":"95.594","EPHEMERIS_TYPE":"0","MEAN_ELEMENT_THEORY":"SGP4","MEAN_MOTION":"15.06375145","DECAY_DATE":null,"MEAN_MOTION_DOT":"0.00034098","ELEMENT_SET_NO":"999","OBJECT_NAME":"STARLINK-2416","NORAD_CAT_ID":"47829","RA_OF_ASC_NODE":"177.1959","REF_FRAME":"TEME","CLASSIFICATION_TYPE":"U","OBJECT_ID":"2021-018AU","REV_AT_EPOCH":"11006","BSTAR":"0.00229850000000","PERIAPSIS":"546.757","OBJECT_TYPE":"PAYLOAD","LAUNCH_DATE":"2021-03-11","INCLINATION":"53.0520","MEAN_MOTION_DDOT":"0.0000000000000","TLE_LINE2":"2 47829  53.0520 177.1959 0000769  80.5367 279.5709 15.06375145110061","ECCENTRICITY":"0.00007690","APOAPSIS":"547.822","TLE_LINE1":"1 47829U 21018AU  23060.79425446  .00034098  00000-0  22985-2 0  9996","GP_ID":"227317009","SEMIMAJOR_AXIS":"6925.425","EPOCH":"2023-03-01T19:03:43.585344","FILE":"3848834","CENTER_NAME":"EARTH"},{"EPHEMERIS_TYPE":"0","MEAN_ELEMENT_THEORY":"SGP4","MEAN_MOTION":"15.06355120","DECAY_DATE":null,"MEAN_MOTION_DOT":"0.00026955","OBJECT_NAME":"STARLINK-2419","ELEMENT_SET_NO":"999","CLASSIFICATION_TYPE":"U","OBJECT_ID":"2021-018AV","NORAD_CAT_ID":"47830","REF_FRAME":"TEME","RA_OF_ASC_NODE":"178.1068","REV_AT_EPOCH":"11003","TIME_SYSTEM":"UTC","MEAN_ANOMALY":"269.9605","RCS_SIZE":"LARGE","SITE":"AFETR","ARG_OF_PERICENTER":"90.1476","COUNTRY_CODE":"US","PERIOD":"95.595","TLE_LINE1":"1 47830U 21018AV  23060.59152655  .00026955  00000-0  18238-2 0  9994","APOAPSIS":"547.909","TLE_LINE2":"2 47830  53.0511 178.1068 0000805  90.1476 269.9605 15.06355120110030","ECCENTRICITY":"0.00008050","GP_ID":"227317259","SEMIMAJOR_AXIS":"6925.486","EPOCH":"2023-03-01T14:11:47.893920","CENTER_NAME":"EARTH","FILE":"3848834","PERIAPSIS":"546.794","BSTAR":"0.00182380000000","LAUNCH_DATE":"2021-03-11","OBJECT_TYPE":"PAYLOAD","INCLINATION":"53.0511","MEAN_MOTION_DDOT":"0.0000000000000"},{"EPHEMERIS_TYPE":"0","MEAN_ELEMENT_THEORY":"SGP4","DECAY_DATE":null,"MEAN_MOTION":"15.06333592","MEAN_MOTION_DOT":"0.00034928","ELEMENT_SET_NO":"999","OBJECT_NAME":"STARLINK-2420","REF_FRAME":"TEME","RA_OF_ASC_NODE":"152.8041","NORAD_CAT_ID":"47831","CLASSIFICATION_TYPE":"U","OBJECT_ID":"2021-018AW","REV_AT_EPOCH":"11045","TIME_SYSTEM":"UTC","RCS_SIZE":"LARGE","MEAN_ANOMALY":"266.9428","ARG_OF_PERICENTER":"93.1680","SITE":"AFETR","COUNTRY_CODE":"US","PERIOD":"95.596","TLE_LINE2":"2 47831  53.0542 152.8041 0001044  93.1680 266.9428 15.06333592110456","ECCENTRICITY":"0.00010440","APOAPSIS":"548.140","TLE_LINE1":"1 47831U 21018AW  23060.65833468  .00034928  00000-0  23564-2 0  9997","GP_ID":"227318010","SEMIMAJOR_AXIS":"6925.552","EPOCH":"2023-03-01T15:48:00.116352","FILE":"3848834","CENTER_NAME":"EARTH","BSTAR":"0.00235640000000","PERIAPSIS":"546.694","OBJECT_TYPE":"PAYLOAD","LAUNCH_DATE":"2021-03-11","INCLINATION":"53.0542","MEAN_MOTION_DDOT":"0.0000000000000"},{"GP_ID":"227318757","TLE_LINE2":"2 47832  53.0513 167.7074 0001313 112.4421 247.6707 15.06365489110190","APOAPSIS":"548.229","ECCENTRICITY":"0.00013130","TLE_LINE1":"1 47832U 21018AX  23060.68091433  .00035959  00000-0  24229-2 0  9993","FILE":"3848834","CENTER_NAME":"EARTH","EPOCH":"2023-03-01T16:20:30.998112","SEMIMAJOR_AXIS":"6925.454","OBJECT_TYPE":"PAYLOAD","LAUNCH_DATE":"2021-03-11","BSTAR":"0.00242290000000","PERIAPSIS":"546.410","MEAN_MOTION_DDOT":"0.0000000000000","INCLINATION":"53.0513","MEAN_MOTION":"15.06365489","DECAY_DATE":null,"MEAN_ELEMENT_THEORY":"SGP4","EPHEMERIS_TYPE":"0","REV_AT_EPOCH":"11019","RA_OF_ASC_NODE":"167.7074","REF_FRAME":"TEME","NORAD_CAT_ID":"47832","OBJECT_ID":"2021-018AX","CLASSIFICATION_TYPE":"U","ELEMENT_SET_NO":"999","OBJECT_NAME":"STARLINK-2422","MEAN_MOTION_DOT":"0.00035959","ARG_OF_PERICENTER":"112.4421","SITE":"AFETR","RCS_SIZE":"LARGE","MEAN_ANOMALY":"247.6707","TIME_SYSTEM":"UTC","PERIOD":"95.594","COUNTRY_CODE":"US"}];
